{
  "type": "FeatureCollection",
  "features": [
    {
      "type": "Feature",
      "properties": {
        "norad_id": 31319,
        "name": "FENGYUN 1C DEB",
        "group": "fengyun-1c-debris",
        "lat": 71.34681924925997,
        "lon": 105.07914310999126,
        "alt_km": 896.9259454866487,
        "timestamp": "2025-12-25T19:00:39.632771+00:00",
        "meta_object_name": "FENGYUN 1C DEB",
        "meta_object_id": "1999-025BPX",
        "meta_epoch": "2025-12-24T16:28:07.629024",
        "meta_mean_motion": 13.75833497,
        "meta_eccentricity": 0.01706011,
        "meta_inclination": 98.831,
        "meta_ra_of_asc_node": 256.6331,
        "meta_arg_of_pericenter": 55.2278,
        "meta_mean_anomaly": 334.9598,
        "meta_ephemeris_type": 0,
        "meta_classification_type": "U",
        "meta_norad_cat_id": 31319,
        "meta_element_set_no": 999,
        "meta_rev_at_epoch": 93852,
        "meta_bstar": 0.00021344103,
        "meta_mean_motion_dot": 1.91e-06,
        "meta_mean_motion_ddot": 0,
        "tle_line1": "1 31319U 99025BPX 25358.68619941  .00000191  00000+0  21344-3 0  9996",
        "tle_line2": "2 31319  98.8310 256.6331 0170601  55.2278 334.9598 13.75833497938526"
      },
      "geometry": {
        "type": "Point",
        "coordinates": [
          105.07914310999126,
          71.34681924925997
        ]
      }
    },
    {
      "type": "Feature",
      "properties": {
        "norad_id": 31321,
        "name": "FENGYUN 1C DEB",
        "group": "fengyun-1c-debris",
        "lat": 19.22612004820136,
        "lon": 75.28739741792668,
        "alt_km": 857.7457317775252,
        "timestamp": "2025-12-25T19:00:39.632781+00:00",
        "meta_object_name": "FENGYUN 1C DEB",
        "meta_object_id": "1999-025BPZ",
        "meta_epoch": "2025-12-21T11:18:43.092576",
        "meta_mean_motion": 14.13827699,
        "meta_eccentricity": 0.00303049,
        "meta_inclination": 98.7333,
        "meta_ra_of_asc_node": 74.1401,
        "meta_arg_of_pericenter": 153.2037,
        "meta_mean_anomaly": 207.0709,
        "meta_ephemeris_type": 0,
        "meta_classification_type": "U",
        "meta_norad_cat_id": 31321,
        "meta_element_set_no": 999,
        "meta_rev_at_epoch": 57507,
        "meta_bstar": 0.00012257196,
        "meta_mean_motion_dot": 1.9e-06,
        "meta_mean_motion_ddot": 0,
        "tle_line1": "1 31321U 99025BPZ 25355.47133209  .00000190  00000+0  12257-3 0  9993",
        "tle_line2": "2 31321  98.7333  74.1401 0030304 153.2037 207.0709 14.13827699575072"
      },
      "geometry": {
        "type": "Point",
        "coordinates": [
          75.28739741792668,
          19.22612004820136
        ]
      }
    },
    {
      "type": "Feature",
      "properties": {
        "norad_id": 31322,
        "name": "FENGYUN 1C DEB",
        "group": "fengyun-1c-debris",
        "lat": -60.5923496312341,
        "lon": 77.7407726164957,
        "alt_km": 854.3116991905345,
        "timestamp": "2025-12-25T19:00:39.632791+00:00",
        "meta_object_name": "FENGYUN 1C DEB",
        "meta_object_id": "1999-025BQA",
        "meta_epoch": "2025-12-22T10:55:09.812352",
        "meta_mean_motion": 13.73001176,
        "meta_eccentricity": 0.02380895,
        "meta_inclination": 98.5721,
        "meta_ra_of_asc_node": 59.2277,
        "meta_arg_of_pericenter": 344.2123,
        "meta_mean_anomaly": 29.7428,
        "meta_ephemeris_type": 0,
        "meta_classification_type": "U",
        "meta_norad_cat_id": 31322,
        "meta_element_set_no": 999,
        "meta_rev_at_epoch": 62409,
        "meta_bstar": 0.00020913462,
        "meta_mean_motion_dot": 1.98e-06,
        "meta_mean_motion_ddot": 0,
        "tle_line1": "1 31322U 99025BQA 25356.45497468  .00000198  00000+0  20913-3 0  9999",
        "tle_line2": "2 31322  98.5721  59.2277 0238089 344.2123  29.7428 13.73001176624098"
      },
      "geometry": {
        "type": "Point",
        "coordinates": [
          77.7407726164957,
          -60.5923496312341
        ]
      }
    },
    {
      "type": "Feature",
      "properties": {
        "norad_id": 31323,
        "name": "FENGYUN 1C DEB",
        "group": "fengyun-1c-debris",
        "lat": -77.36740190523733,
        "lon": 171.4802268254855,
        "alt_km": 824.0577212749295,
        "timestamp": "2025-12-25T19:00:39.632801+00:00",
        "meta_object_name": "FENGYUN 1C DEB",
        "meta_object_id": "1999-025BQB",
        "meta_epoch": "2025-12-20T21:43:51.769056",
        "meta_mean_motion": 14.27642156,
        "meta_eccentricity": 0.0030892,
        "meta_inclination": 99.4195,
        "meta_ra_of_asc_node": 34.0071,
        "meta_arg_of_pericenter": 56.5612,
        "meta_mean_anomaly": 303.8513,
        "meta_ephemeris_type": 0,
        "meta_classification_type": "U",
        "meta_norad_cat_id": 31323,
        "meta_element_set_no": 999,
        "meta_rev_at_epoch": 64097,
        "meta_bstar": 0.0010025,
        "meta_mean_motion_dot": 2.433e-05,
        "meta_mean_motion_ddot": 0,
        "tle_line1": "1 31323U 99025BQB 25354.90546029  .00002433  00000+0  10025-2 0  9992",
        "tle_line2": "2 31323  99.4195  34.0071 0030892  56.5612 303.8513 14.27642156640970"
      },
      "geometry": {
        "type": "Point",
        "coordinates": [
          171.4802268254855,
          -77.36740190523733
        ]
      }
    },
    {
      "type": "Feature",
      "properties": {
        "norad_id": 31324,
        "name": "FENGYUN 1C DEB",
        "group": "fengyun-1c-debris",
        "lat": 55.503580486035375,
        "lon": 115.07581852198574,
        "alt_km": 866.4588496085362,
        "timestamp": "2025-12-25T19:00:39.632811+00:00",
        "meta_object_name": "FENGYUN 1C DEB",
        "meta_object_id": "1999-025BQC",
        "meta_epoch": "2025-12-21T14:16:42.684672",
        "meta_mean_motion": 14.14700279,
        "meta_eccentricity": 0.0048997,
        "meta_inclination": 99.1242,
        "meta_ra_of_asc_node": 277.2633,
        "meta_arg_of_pericenter": 278.9209,
        "meta_mean_anomaly": 80.6419,
        "meta_ephemeris_type": 0,
        "meta_classification_type": "U",
        "meta_norad_cat_id": 31324,
        "meta_element_set_no": 999,
        "meta_rev_at_epoch": 96611,
        "meta_bstar": 0.00014071,
        "meta_mean_motion_dot": 2.27e-06,
        "meta_mean_motion_ddot": 0,
        "tle_line1": "1 31324U 99025BQC 25355.59493848  .00000227  00000+0  14071-3 0  9994",
        "tle_line2": "2 31324  99.1242 277.2633 0048997 278.9209  80.6419 14.14700279966112"
      },
      "geometry": {
        "type": "Point",
        "coordinates": [
          115.07581852198574,
          55.503580486035375
        ]
      }
    },
    {
      "type": "Feature",
      "properties": {
        "norad_id": 31325,
        "name": "FENGYUN 1C DEB",
        "group": "fengyun-1c-debris",
        "lat": 40.09890262496101,
        "lon": -78.24596998662058,
        "alt_km": 794.9160414911112,
        "timestamp": "2025-12-25T19:00:39.632823+00:00",
        "meta_object_name": "FENGYUN 1C DEB",
        "meta_object_id": "1999-025BQD",
        "meta_epoch": "2025-12-23T23:59:08.872800",
        "meta_mean_motion": 14.16974364,
        "meta_eccentricity": 0.00722678,
        "meta_inclination": 98.9921,
        "meta_ra_of_asc_node": 92.2798,
        "meta_arg_of_pericenter": 188.6721,
        "meta_mean_anomaly": 171.3209,
        "meta_ephemeris_type": 0,
        "meta_classification_type": "U",
        "meta_norad_cat_id": 31325,
        "meta_element_set_no": 999,
        "meta_rev_at_epoch": 59937,
        "meta_bstar": 0.0020925352,
        "meta_mean_motion_dot": 4.268e-05,
        "meta_mean_motion_ddot": 0,
        "tle_line1": "1 31325U 99025BQD 25357.99940825  .00004268  00000+0  20925-2 0  9996",
        "tle_line2": "2 31325  98.9921  92.2798 0072267 188.6721 171.3209 14.16974364599379"
      },
      "geometry": {
        "type": "Point",
        "coordinates": [
          -78.24596998662058,
          40.09890262496101
        ]
      }
    },
    {
      "type": "Feature",
      "properties": {
        "norad_id": 31326,
        "name": "FENGYUN 1C DEB",
        "group": "fengyun-1c-debris",
        "lat": 63.382609453042626,
        "lon": -134.6639092685385,
        "alt_km": 557.7051379440945,
        "timestamp": "2025-12-25T19:00:39.632833+00:00",
        "meta_object_name": "FENGYUN 1C DEB",
        "meta_object_id": "1999-025BQE",
        "meta_epoch": "2025-12-15T15:32:28.923936",
        "meta_mean_motion": 15.00424804,
        "meta_eccentricity": 0.00131933,
        "meta_inclination": 98.9962,
        "meta_ra_of_asc_node": 232.0333,
        "meta_arg_of_pericenter": 356.0949,
        "meta_mean_anomaly": 4.0165,
        "meta_ephemeris_type": 0,
        "meta_classification_type": "U",
        "meta_norad_cat_id": 31326,
        "meta_element_set_no": 999,
        "meta_rev_at_epoch": 73789,
        "meta_bstar": 0.0045407433,
        "meta_mean_motion_dot": 0.00057569,
        "meta_mean_motion_ddot": 0,
        "tle_line1": "1 31326U 99025BQE 25349.64755699  .00057569  00000+0  45407-2 0  9997",
        "tle_line2": "2 31326  98.9962 232.0333 0013193 356.0949   4.0165 15.00424804737897"
      },
      "geometry": {
        "type": "Point",
        "coordinates": [
          -134.6639092685385,
          63.382609453042626
        ]
      }
    }
  ]
}